CAS-2T & KS-1Q          
1 41847U 16066G   21126.17555137  .00000037  00000-0  16335-4 0  9991
2 41847  98.6048 185.1174 0365007 346.7775  12.4037 14.38182696235801
NAYIF-1 (EO-88)         
1 42017U 17008BX  21126.25862482  .00001771  00000-0  67557-4 0  9999
2 42017  97.3183 194.6137 0004337 251.9090 108.1677 15.27977669234818
ZHUHAI-1 02 (CAS-4B)    
1 42759U 17034B   21126.50931446  .00000370  00000-0  35612-4 0  9997
2 42759  43.0183  51.6668 0010039 267.4823 261.7754 15.10182265214803
ZHUHAI-1 01 (CAS-4A)    
1 42761U 17034D   21126.50271833  .00000358  00000-0  34833-4 0  9997
2 42761  43.0188  50.7897 0010570 267.4005 262.2544 15.10263980214804
MAX VALIER SAT          
1 42778U 17036P   21126.40117602  .00001191  00000-0  52731-4 0  9992
2 42778  97.2590 176.3841 0010812 332.6247  27.4420 15.23490092214888
RADFXSAT (FOX-1B)       
1 43017U 17073E   21126.53844288  .00000821  00000-0  67669-4 0  9996
2 43017  97.7099  32.1831 0256699  77.1966 285.7796 14.79471740186923
FOX-1D (AO-92)          
1 43137U 18004AC  21126.47532500  .00001302  00000-0  54809-4 0  9995
2 43137  97.4082 200.9352 0008893  10.5729 349.5694 15.25127731184268
DIWATA-2B               
1 43678U 18084H   21126.59766628  .00000323  00000-0  37822-4 0  9994
2 43678  97.9171 251.6776 0009680 180.6740 179.4428 14.91743283137195
ES'HAIL 2               
1 43700U 18090A   21126.50278209  .00000133  00000-0  00000-0 0  9994
2 43700   0.0171 269.9039 0001113 147.9573  13.5428  1.00274074  8944
FOX-1CLIFF (AO-95)      
1 43770U 18099N   21126.42579825  .00000356  00000-0  37402-4 0  9996
2 43770  97.6670 197.5371 0014143 191.9994 168.0892 14.95287844132176
ITASAT 1                
1 43786U 18099AE  21126.15262279  .00000685  00000-0  66793-4 0  9995
2 43786  97.6690 197.9184 0014986 186.0300 174.0743 14.95586604132169
JY1SAT (JO-97)          
1 43803U 18099AX  21126.45781549  .00000316  00000-0  33336-4 0  9992
2 43803  97.6643 197.9740 0015058 185.6834 174.4219 14.95821123132219
UWE-4                   
1 43880U 18111E   21126.53644598  .00000251  00000-0  26914-4 0  9995
2 43880  97.6889  34.9800 0010991 241.9391 118.0720 14.96825726128814
PSAT2 (NO-104)          
1 44354U 19036R   21126.09032860  .00010112  00000-0  13224-3 0  9999
2 44354  28.5294  49.2609 0328990 177.0376 183.2249 15.12609381102552
BRICSAT2 (NO-103)       
1 44355U 19036S   21126.35449571  .00015534  00000-0  17269-3 0  9996
2 44355  28.5254   8.9885 0271664 242.7193 114.5491 15.27386791102985
JAISAT-1                
1 44419U 19038F   21126.46361524  .00001138  00000-0  66674-4 0  9992
2 44419  97.5851  91.3332 0022830  96.4568 263.9264 15.13651107101445
DUCHIFAT-3              
1 44854U 19089C   21126.30903589  .00000569  00000-0  51861-4 0  9996
2 44854  36.9673 349.8602 0007184 166.3164 193.7777 14.99456769 76778
RS-44 & BREEZE-KM R/B   
1 44909U 19096E   21126.48675215  .00000034  00000-0  89295-4 0  9995
2 44909  82.5180 140.6995 0217173 190.9311 168.7032 12.79709810 63494
ORBITAL FACTORY 2 (OF-2)
1 45113U 19071C   21126.49586848  .00001849  00000-0  63739-4 0  9990
2 45113  51.6421 240.9059 0012220 140.2979 219.8900 15.35504252 70720
HUSKYSAT-1 (HO-107)     
1 45119U 19071J   21126.57333959  .00002275  00000-0  75761-4 0  9990
2 45119  51.6417 239.9197 0011613 137.3433 222.8454 15.35552331 70739
BY70-2                  
1 45857U 20042B   21126.50647092  .00001288  00000-0  19032-3 0  9999
2 45857  97.9841 202.6913 0010503 359.1742   0.9446 14.76916953 45353
SALSAT                  
1 46495U 20068K   21126.59756985 -.00000062  00000-0  10249-7 0  9992
2 46495  97.6908  64.3491 0015573 208.7728 151.2614 15.03426803 33043
BY70-3                  
1 46839U 20079N   21126.56108757  .00003181  00000-0  10078-3 0  9991
2 46839  97.2417 201.2526 0007205  11.6891 101.7399 15.33427861 27784
RADFXSAT-2 (AO-109)     
1 47311U 21002C   21126.36845127  .00001709  00000-0  86534-4 0  9996
2 47311  60.6850  88.7203 0030901  25.0392 335.2185 15.21523279 16466
UVSQ-SAT                
1 47438U 21006AB  21126.38802206  .00000846  00000-0  51483-4 0  9999
2 47438  97.4905 188.3594 0011349 239.2994 120.7119 15.13048371 15691
DIY-1 (ARDUIQUBE)       
1 47963U 21022AH  21126.53478833  .00002058  00000-0  14075-3 0  9994
2 47963  97.5619  29.6098 0021567  87.4970 272.8726 15.07050468  5586
